[{"OBJECT_NAME":"STARLINK-3874","OBJECT_ID":"2022-045AL","EPOCH":"2026-03-09T12:40:13.277280","MEAN_MOTION":15.08840357,"ECCENTRICITY":0.00013375,"INCLINATION":53.2159,"RA_OF_ASC_NODE":189.8483,"ARG_OF_PERICENTER":81.4081,"MEAN_ANOMALY":278.7063,"EPHEMERIS_TYPE":0,"CLASSIFICATION_TYPE":"U","NORAD_CAT_ID":52365,"ELEMENT_SET_NO":999,"REV_AT_EPOCH":21589,"BSTAR":-5.619475e-6,"MEAN_MOTION_DOT":-3.77e-6,"MEAN_MOTION_DDOT":0},{"OBJECT_NAME":"CZ-4C R\/B","OBJECT_ID":"2012-066D","EPOCH":"2026-03-09T22:13:57.605952","MEAN_MOTION":13.71953349,"ECCENTRICITY":0.06158717,"INCLINATION":63.3882,"RA_OF_ASC_NODE":348.5087,"ARG_OF_PERICENTER":10.8771,"MEAN_ANOMALY":350.4906,"EPHEMERIS_TYPE":0,"CLASSIFICATION_TYPE":"U","NORAD_CAT_ID":39014,"ELEMENT_SET_NO":999,"REV_AT_EPOCH":66492,"BSTAR":0.00035049571,"MEAN_MOTION_DOT":1.149e-5,"MEAN_MOTION_DDOT":0}]
